STARLINK-1646
1 16351C 20062AD  21326.14982879  .00002918  00000-0  19553-3 0  3261
2 16351  53.0514 198.0686 0002063  74.6732  70.6692 15.06387344    19
